{
  "norad_id": 62758,
  "name": "STARLINK-33596",
  "history": [
    {
      "epoch": "2026-03-28T17:42:57.959712Z",
      "apogee_km": 475.9126965745845,
      "perigee_km": 474.43183350859454,
      "latitude_deg": 3.5404767223796364e-05,
      "longitude_deg": 142.35931734545812,
      "height_km": 475.88594692573685,
      "semi_major_axis_km": 6853.309265041589,
      "eccentricity": 0.00010804,
      "inclination_deg": 53.1589,
      "raan_deg": 234.2551,
      "arg_perigee_deg": 75.5645,
      "mean_anomaly_deg": 284.5476,
      "mean_motion_rev_day": 15.30214336
    },
    {
      "epoch": "2026-03-29T03:07:17.105376Z",
      "apogee_km": 475.94726161509243,
      "perigee_km": 474.3422230310407,
      "latitude_deg": -6.49758647408812e-05,
      "longitude_deg": -0.9274937759684532,
      "height_km": 475.9417025977105,
      "semi_major_axis_km": 6853.281742323066,
      "eccentricity": 0.0001171,
      "inclination_deg": 53.159,
      "raan_deg": 232.4344,
      "arg_perigee_deg": 82.7573,
      "mean_anomaly_deg": 277.356,
      "mean_motion_rev_day": 15.30223554
    },
    {
      "epoch": "2026-03-30T02:38:04.416576Z",
      "apogee_km": 476.2897161145456,
      "perigee_km": 474.0314175003314,
      "latitude_deg": -4.10553299822885e-05,
      "longitude_deg": 0.8580441867795734,
      "height_km": 476.31831330611146,
      "semi_major_axis_km": 6853.297566807438,
      "eccentricity": 0.00016476,
      "inclination_deg": 53.1594,
      "raan_deg": 227.8827,
      "arg_perigee_deg": 103.3225,
      "mean_anomaly_deg": 256.7959,
      "mean_motion_rev_day": 15.30218254
    },
    {
      "epoch": "2026-03-30T15:10:29.668512Z",
      "apogee_km": 476.1570604157823,
      "perigee_km": 474.21907715283123,
      "latitude_deg": -2.1281571325656294e-05,
      "longitude_deg": 169.81242934138965,
      "height_km": 475.63809276626023,
      "semi_major_axis_km": 6853.3250687843065,
      "eccentricity": 0.00014139,
      "inclination_deg": 53.1601,
      "raan_deg": 225.4573,
      "arg_perigee_deg": 62.4554,
      "mean_anomaly_deg": 297.659,
      "mean_motion_rev_day": 15.30209043
    },
    {
      "epoch": "2026-03-30T18:18:36.389088Z",
      "apogee_km": 476.08563439879345,
      "perigee_km": 474.3843533350364,
      "latitude_deg": 2.4298797212360247e-05,
      "longitude_deg": 122.04710295675754,
      "height_km": 476.0849635618603,
      "semi_major_axis_km": 6853.371993866915,
      "eccentricity": 0.00012412,
      "inclination_deg": 53.1592,
      "raan_deg": 224.8487,
      "arg_perigee_deg": 86.7614,
      "mean_anomaly_deg": 273.3529,
      "mean_motion_rev_day": 15.30193327
    },
    {
      "epoch": "2026-03-31T08:25:05.769408Z",
      "apogee_km": 476.12725089681044,
      "perigee_km": 474.31686756772433,
      "latitude_deg": 8.76516508907115e-06,
      "longitude_deg": -92.88412744280119,
      "height_km": 475.88676574916565,
      "semi_major_axis_km": 6853.359059232267,
      "eccentricity": 0.00013208,
      "inclination_deg": 53.1596,
      "raan_deg": 222.1193,
      "arg_perigee_deg": 75.063,
      "mean_anomaly_deg": 285.0517,
      "mean_motion_rev_day": 15.30197659
    },
    {
      "epoch": "2026-04-01T01:39:40.983840Z",
      "apogee_km": 475.1840142532392,
      "perigee_km": 475.02008477517484,
      "latitude_deg": -4.023237103603194e-05,
      "longitude_deg": 4.421460675586965,
      "height_km": 475.9552465116686,
      "semi_major_axis_km": 6853.239049514207,
      "eccentricity": 1.196e-05,
      "inclination_deg": 53.1617,
      "raan_deg": 218.7798,
      "arg_perigee_deg": 304.8431,
      "mean_anomaly_deg": 55.2558,
      "mean_motion_rev_day": 15.30237853
    },
    {
      "epoch": "2026-04-02T18:25:04.323360Z",
      "apogee_km": 476.9154899196601,
      "perigee_km": 473.42838926501736,
      "latitude_deg": 3.230080688971595e-05,
      "longitude_deg": 103.51495911397873,
      "height_km": 475.50808876023166,
      "semi_major_axis_km": 6853.308939592339,
      "eccentricity": 0.00025441,
      "inclination_deg": 53.1539,
      "raan_deg": 210.8943,
      "arg_perigee_deg": 71.2783,
      "mean_anomaly_deg": 288.8494,
      "mean_motion_rev_day": 15.30214445
    },
    {
      "epoch": "2026-04-03T14:47:45.445344Z",
      "apogee_km": 476.085860273196,
      "perigee_km": 474.5726149279335,
      "latitude_deg": 6.961833435091915e-05,
      "longitude_deg": 153.06294703526225,
      "height_km": 476.2514034908684,
      "semi_major_axis_km": 6853.466237600564,
      "eccentricity": 0.0001104,
      "inclination_deg": 53.1585,
      "raan_deg": 206.9505,
      "arg_perigee_deg": 91.8216,
      "mean_anomaly_deg": 268.2912,
      "mean_motion_rev_day": 15.30161764
    },
    {
      "epoch": "2026-04-04T14:18:32.162976Z",
      "apogee_km": 476.09171233945017,
      "perigee_km": 474.69222172438185,
      "latitude_deg": 7.510280755397126e-05,
      "longitude_deg": 154.85215007033761,
      "height_km": 476.40628297492253,
      "semi_major_axis_km": 6853.528967031915,
      "eccentricity": 0.0001021,
      "inclination_deg": 53.1576,
      "raan_deg": 202.4,
      "arg_perigee_deg": 99.5571,
      "mean_anomaly_deg": 260.5546,
      "mean_motion_rev_day": 15.30140756
    },
    {
      "epoch": "2026-04-05T13:49:22.302912Z",
      "apogee_km": 476.36858009841035,
      "perigee_km": 474.0850392770217,
      "latitude_deg": -2.5496237421419633e-05,
      "longitude_deg": 156.63187459905927,
      "height_km": 476.45863624462515,
      "semi_major_axis_km": 6853.363809687716,
      "eccentricity": 0.0001666,
      "inclination_deg": 53.1579,
      "raan_deg": 197.8544,
      "arg_perigee_deg": 107.032,
      "mean_anomaly_deg": 253.0863,
      "mean_motion_rev_day": 15.30196068
    },
    {
      "epoch": "2026-04-05T13:49:22.303776Z",
      "apogee_km": 476.36871716568567,
      "perigee_km": 474.08490220974545,
      "latitude_deg": -2.724251036777841e-05,
      "longitude_deg": 156.63186968803606,
      "height_km": 476.45867638896016,
      "semi_major_axis_km": 6853.363809687716,
      "eccentricity": 0.00016662,
      "inclination_deg": 53.1579,
      "raan_deg": 197.8544,
      "arg_perigee_deg": 107.032,
      "mean_anomaly_deg": 253.0863,
      "mean_motion_rev_day": 15.30196068
    },
    {
      "epoch": "2026-04-06T07:03:56.916000Z",
      "apogee_km": 475.61324938902,
      "perigee_km": 474.6267915734916,
      "latitude_deg": 1.7691053566319475e-05,
      "longitude_deg": -106.06085862667231,
      "height_km": 475.67521720580766,
      "semi_major_axis_km": 6853.2570204812555,
      "eccentricity": 7.197e-05,
      "inclination_deg": 53.1571,
      "raan_deg": 194.514,
      "arg_perigee_deg": 45.8461,
      "mean_anomaly_deg": 314.2599,
      "mean_motion_rev_day": 15.30231834
    },
    {
      "epoch": "2026-04-07T12:50:57.561216Z",
      "apogee_km": 476.07323776309295,
      "perigee_km": 474.46446927303805,
      "latitude_deg": -3.1903945051713555e-06,
      "longitude_deg": 160.19716869602297,
      "height_km": 476.20443851293794,
      "semi_major_axis_km": 6853.405853518066,
      "eccentricity": 0.00011737,
      "inclination_deg": 53.1576,
      "raan_deg": 188.7479,
      "arg_perigee_deg": 92.6822,
      "mean_anomaly_deg": 267.4313,
      "mean_motion_rev_day": 15.30181987
    },
    {
      "epoch": "2026-04-08T12:21:45.681984Z",
      "apogee_km": 476.1939451452927,
      "perigee_km": 474.3365360700427,
      "latitude_deg": 7.276352941986113e-05,
      "longitude_deg": 161.9801594715442,
      "height_km": 476.06605845681577,
      "semi_major_axis_km": 6853.402240607667,
      "eccentricity": 0.00013551,
      "inclination_deg": 53.158,
      "raan_deg": 184.197,
      "arg_perigee_deg": 84.0097,
      "mean_anomaly_deg": 276.1059,
      "mean_motion_rev_day": 15.30183197
    },
    {
      "epoch": "2026-04-09T11:52:33.705120Z",
      "apogee_km": 476.15798851034924,
      "perigee_km": 474.339648185025,
      "latitude_deg": -2.1764588533980384e-05,
      "longitude_deg": 163.7640311520243,
      "height_km": 476.07855859241806,
      "semi_major_axis_km": 6853.385818347687,
      "eccentricity": 0.00013266,
      "inclination_deg": 53.1587,
      "raan_deg": 179.6467,
      "arg_perigee_deg": 85.7029,
      "mean_anomaly_deg": 274.4123,
      "mean_motion_rev_day": 15.30188697
    }
  ]
}